{"type": "FeatureCollection", "features": [ {"type": "Feature", "properties": {"norad_id": 66858, "name": "STARLINK-35118", "group": "last-30-days", "lat": -0.9714825524047723, "lon": 102.4349152416213, "alt_km": 320.36589883577744, "timestamp": "2025-12-15T19:00:44.078754+00:00", "meta": {"OBJECT_NAME": "STARLINK-35118", "OBJECT_ID": "2025-281L", "EPOCH": "2025-12-14T20:00:06.000192", "MEAN_MOTION": 15.85734489, "ECCENTRICITY": 0.00017205, "INCLINATION": 43.0007, "RA_OF_ASC_NODE": 109.3772, "ARG_OF_PERICENTER": 280.3337, "MEAN_ANOMALY": 2.5267, "EPHEMERIS_TYPE": 0, "CLASSIFICATION_TYPE": "U", "NORAD_CAT_ID": 66858, "ELEMENT_SET_NO": 999, "REV_AT_EPOCH": 152, "BSTAR": -0.0053411075, "MEAN_MOTION_DOT": -0.01197213, "MEAN_MOTION_DDOT": 0}, "tle": {"line1": "1 66858U 25281L   25348.83340278 -.01197213  00000+0 -53411-2 0  9999", "line2": "2 66858  43.0007 109.3772 0001720 280.3337   2.5267 15.85734489  1528"}}, "geometry": {"type": "Point", "coordinates": [102.4349152416213, -0.9714825524047723]}}, {"type": "Feature", "properties": {"norad_id": 66859, "name": "STARLINK-35646", "group": "last-30-days", "lat": 0.9424796881982147, "lon": 104.48243015372815, "alt_km": 320.33492289940295, "timestamp": "2025-12-15T19:00:44.078764+00:00", "meta": {"OBJECT_NAME": "STARLINK-35646", "OBJECT_ID": "2025-281M", "EPOCH": "2025-12-14T20:00:06.000192", "MEAN_MOTION": 15.85729499, "ECCENTRICITY": 0.00016661, "INCLINATION": 43.0006, "RA_OF_ASC_NODE": 109.3703, "ARG_OF_PERICENTER": 278.8737, "MEAN_ANOMALY": 6.8634, "EPHEMERIS_TYPE": 0, "CLASSIFICATION_TYPE": "U", "NORAD_CAT_ID": 66859, "ELEMENT_SET_NO": 999, "REV_AT_EPOCH": 173, "BSTAR": -0.0054103234, "MEAN_MOTION_DOT": -0.01210726, "MEAN_MOTION_DDOT": 0}, "tle": {"line1": "1 66859U 25281M   25348.83340278 -.01210726  00000+0 -54103-2 0  9994", "line2": "2 66859  43.0006 109.3703 0001666 278.8737   6.8634 15.85729499  1730"}}, "geometry": {"type": "Point", "coordinates": [104.48243015372815, 0.9424796881982147]}}, {"type": "Feature", "properties": {"norad_id": 66860, "name": "STARLINK-35987", "group": "last-30-days", "lat": 10.555781788141093, "lon": 114.97056718860995, "alt_km": 320.43662874690835, "timestamp": "2025-12-15T19:00:44.078775+00:00", "meta": {"OBJECT_NAME": "STARLINK-35987", "OBJECT_ID": "2025-281N", "EPOCH": "2025-12-14T20:00:06.000192", "MEAN_MOTION": 15.85714313, "ECCENTRICITY": 0.0001679, "INCLINATION": 43.0006, "RA_OF_ASC_NODE": 109.3329, "ARG_OF_PERICENTER": 272.5138, "MEAN_ANOMALY": 28.0131, "EPHEMERIS_TYPE": 0, "CLASSIFICATION_TYPE": "U", "NORAD_CAT_ID": 66860, "ELEMENT_SET_NO": 999, "REV_AT_EPOCH": 173, "BSTAR": -0.0061178056, "MEAN_MOTION_DOT": -0.01348596, "MEAN_MOTION_DDOT": 0}, "tle": {"line1": "1 66860U 25281N   25348.83340278 -.01348596  00000+0 -61178-2 0  9993", "line2": "2 66860  43.0006 109.3329 0001679 272.5138  28.0131 15.85714313  1733"}}, "geometry": {"type": "Point", "coordinates": [114.97056718860995, 10.555781788141093]}}, {"type": "Feature", "properties": {"norad_id": 66861, "name": "STARLINK-35991", "group": "last-30-days", "lat": 4.851567991568481, "lon": 108.68259091446326, "alt_km": 320.2250056425137, "timestamp": "2025-12-15T19:00:44.078786+00:00", "meta": {"OBJECT_NAME": "STARLINK-35991", "OBJECT_ID": "2025-281P", "EPOCH": "2025-12-14T20:00:06.000192", "MEAN_MOTION": 15.8570915, "ECCENTRICITY": 0.00017069, "INCLINATION": 43.0008, "RA_OF_ASC_NODE": 109.3556, "ARG_OF_PERICENTER": 274.6149, "MEAN_ANOMALY": 16.9851, "EPHEMERIS_TYPE": 0, "CLASSIFICATION_TYPE": "U", "NORAD_CAT_ID": 66861, "ELEMENT_SET_NO": 999, "REV_AT_EPOCH": 173, "BSTAR": -0.0054825866, "MEAN_MOTION_DOT": -0.01224033, "MEAN_MOTION_DDOT": 0}, "tle": {"line1": "1 66861U 25281P   25348.83340278 -.01224033  00000+0 -54826-2 0  9995", "line2": "2 66861  43.0008 109.3556 0001706 274.6149  16.9851 15.85709150  1732"}}, "geometry": {"type": "Point", "coordinates": [108.68259091446326, 4.851567991568481]}}, {"type": "Feature", "properties": {"norad_id": 66862, "name": "STARLINK-35974", "group": "last-30-days", "lat": 2.988705338381644, "lon": 106.67533744885097, "alt_km": 320.17316904378276, "timestamp": "2025-12-15T19:00:44.078796+00:00", "meta": {"OBJECT_NAME": "STARLINK-35974", "OBJECT_ID": "2025-281Q", "EPOCH": "2025-12-14T20:00:06.000192", "MEAN_MOTION": 15.85710586, "ECCENTRICITY": 0.00017977, "INCLINATION": 43.0006, "RA_OF_ASC_NODE": 109.3627, "ARG_OF_PERICENTER": 279.1492, "MEAN_ANOMALY": 9.6601, "EPHEMERIS_TYPE": 0, "CLASSIFICATION_TYPE": "U", "NORAD_CAT_ID": 66862, "ELEMENT_SET_NO": 999, "REV_AT_EPOCH": 163, "BSTAR": -0.0054222635, "MEAN_MOTION_DOT": -0.01212181, "MEAN_MOTION_DDOT": 0}, "tle": {"line1": "1 66862U 25281Q   25348.83340278 -.01212181  00000+0 -54223-2 0  9998", "line2": "2 66862  43.0006 109.3627 0001797 279.1492   9.6601 15.85710586  1637"}}, "geometry": {"type": "Point", "coordinates": [106.67533744885097, 2.988705338381644]}}, {"type": "Feature", "properties": {"norad_id": 66863, "name": "STARLINK-36134", "group": "last-30-days", "lat": 7.1127412792038465, "lon": 111.14369746145691, "alt_km": 320.080359883872, "timestamp": "2025-12-15T19:00:44.078809+00:00", "meta": {"OBJECT_NAME": "STARLINK-36134", "OBJECT_ID": "2025-281R", "EPOCH": "2025-12-14T20:00:06.000192", "MEAN_MOTION": 15.85686331, "ECCENTRICITY": 0.0001696, "INCLINATION": 43.001, "RA_OF_ASC_NODE": 109.3469, "ARG_OF_PERICENTER": 278.393, "MEAN_ANOMALY": 16.7215, "EPHEMERIS_TYPE": 0, "CLASSIFICATION_TYPE": "U", "NORAD_CAT_ID": 66863, "ELEMENT_SET_NO": 999, "REV_AT_EPOCH": 173, "BSTAR": -0.0056167618, "MEAN_MOTION_DOT": -0.01249327, "MEAN_MOTION_DDOT": 0}, "tle": {"line1": "1 66863U 25281R   25348.83340278 -.01249327  00000+0 -56168-2 0  9991", "line2": "2 66863  43.0010 109.3469 0001696 278.3930  16.7215 15.85686331  1734"}}, "geometry": {"type": "Point", "coordinates": [111.14369746145691, 7.1127412792038465]}}, {"type": "Feature", "properties": {"norad_id": 66864, "name": "STARLINK-36070", "group": "last-30-days", "lat": 8.804733116426188, "lon": 113.00958550645721, "alt_km": 320.1954281060707, "timestamp": "2025-12-15T19:00:44.078821+00:00", "meta": {"OBJECT_NAME": "STARLINK-36070", "OBJECT_ID": "2025-281S", "EPOCH": "2025-12-14T20:00:06.000192", "MEAN_MOTION": 15.85704863, "ECCENTRICITY": 0.00016228, "INCLINATION": 43.0009, "RA_OF_ASC_NODE": 109.3398, "ARG_OF_PERICENTER": 276.2332, "MEAN_ANOMALY": 21.5058, "EPHEMERIS_TYPE": 0, "CLASSIFICATION_TYPE": "U", "NORAD_CAT_ID": 66864, "ELEMENT_SET_NO": 999, "REV_AT_EPOCH": 176, "BSTAR": -0.0058453894, "MEAN_MOTION_DOT": -0.01295148, "MEAN_MOTION_DDOT": 0}, "tle": {"line1": "1 66864U 25281S   25348.83340278 -.01295148  00000+0 -58454-2 0  9994", "line2": "2 66864  43.0009 109.3398 0001622 276.2332  21.5058 15.85704863  1769"}}, "geometry": {"type": "Point", "coordinates": [113.00958550645721, 8.804733116426188]}}, {"type": "Feature", "properties": {"norad_id": 66865, "name": "STARLINK-36117", "group": "last-30-days", "lat": 12.367986165086517, "lon": 117.03866273115288, "alt_km": 320.3729975999213, "timestamp": "2025-12-15T19:00:44.078831+00:00", "meta": {"OBJECT_NAME": "STARLINK-36117", "OBJECT_ID": "2025-281T", "EPOCH": "2025-12-14T20:00:06.000192", "MEAN_MOTION": 15.85698045, "ECCENTRICITY": 0.00016641, "INCLINATION": 43.0008, "RA_OF_ASC_NODE": 109.3258, "ARG_OF_PERICENTER": 276.0572, "MEAN_ANOMALY": 27.3893, "EPHEMERIS_TYPE": 0, "CLASSIFICATION_TYPE": "U", "NORAD_CAT_ID": 66865, "ELEMENT_SET_NO": 999, "REV_AT_EPOCH": 173, "BSTAR": -0.0063082281, "MEAN_MOTION_DOT": -0.01384191, "MEAN_MOTION_DDOT": 0}, "tle": {"line1": "1 66865U 25281T   25348.83340278 -.01384191  00000+0 -63082-2 0  9995", "line2": "2 66865  43.0008 109.3258 0001664 276.0572  27.3893 15.85698045  1736"}}, "geometry": {"type": "Point", "coordinates": [117.03866273115288, 12.367986165086517]}}, {"type": "Feature", "properties": {"norad_id": 66866, "name": "STARLINK-36126", "group": "last-30-days", "lat": 13.95883164326248, "lon": 118.89314680716639, "alt_km": 320.196394739447, "timestamp": "2025-12-15T19:00:44.078843+00:00", "meta": {"OBJECT_NAME": "STARLINK-36126", "OBJECT_ID": "2025-281U", "EPOCH": "2025-12-14T20:00:06.000192", "MEAN_MOTION": 15.8568331, "ECCENTRICITY": 0.00016289, "INCLINATION": 43.0007, "RA_OF_ASC_NODE": 109.3197, "ARG_OF_PERICENTER": 277.941, "MEAN_ANOMALY": 27.9858, "EPHEMERIS_TYPE": 0, "CLASSIFICATION_TYPE": "U", "NORAD_CAT_ID": 66866, "ELEMENT_SET_NO": 999, "REV_AT_EPOCH": 176, "BSTAR": -0.0063383892, "MEAN_MOTION_DOT": -0.01389046, "MEAN_MOTION_DDOT": 0}, "tle": {"line1": "1 66866U 25281U   25348.83340278 -.01389046  00000+0 -63384-2 0  9995", "line2": "2 66866  43.0007 109.3197 0001628 277.9410  27.9858 15.85683310  1768"}}, "geometry": {"type": "Point", "coordinates": [118.89314680716639, 13.95883164326248]}}, {"type": "Feature", "properties": {"norad_id": 66867, "name": "STARLINK-36101", "group": "last-30-days", "lat": 15.880347880029094, "lon": 121.19066306862788, "alt_km": 320.08573411953967, "timestamp": "2025-12-15T19:00:44.078853+00:00", "meta": {"OBJECT_NAME": "STARLINK-36101", "OBJECT_ID": "2025-281V", "EPOCH": "2025-12-14T20:00:06.000192", "MEAN_MOTION": 15.85633236, "ECCENTRICITY": 0.00015736, "INCLINATION": 43.0009, "RA_OF_ASC_NODE": 109.3116, "ARG_OF_PERICENTER": 280.6172, "MEAN_ANOMALY": 28.4674, "EPHEMERIS_TYPE": 0, "CLASSIFICATION_TYPE": "U", "NORAD_CAT_ID": 66867, "ELEMENT_SET_NO": 999, "REV_AT_EPOCH": 157, "BSTAR": -0.0064121308, "MEAN_MOTION_DOT": -0.01400039, "MEAN_MOTION_DDOT": 0}, "tle": {"line1": "1 66867U 25281V   25348.83340278 -.01400039  00000+0 -64121-2 0  9992", "line2": "2 66867  43.0009 109.3116 0001573 280.6172  28.4674 15.85633236  1570"}}, "geometry": {"type": "Point", "coordinates": [121.19066306862788, 15.880347880029094]}}]}